norad_id,name,regime,epoch,line1,line2,inclination,eccentricity,mean_motion,raan,arg_pericenter,mean_anomaly
26566,COSMOS 2374 (GLONASS),NSO,06105.42287003,1 26566U 00063C   06105.42287003  .00000037  00000-0  10000-3 0  6500\,2 26566 064.5197 202.6739 0045984 218.4281 064.8773 02.13098499 42819,64.5197,0.0045984,2.13098499,202.6739,218.4281,64.8773
26566,COSMOS 2374 (GLONASS),NSO,06105.70922347,1 26566U 00063C   06105.70922347 +.00000038 +00000-0 +10000-3 0 06510\,2 26566 064.5200 202.6642 0045839 218.2561 284.7235 02.13098315042829,64.52,0.0045839,2.13098315,202.6642,218.2561,284.7235
26566,COSMOS 2374 (GLONASS),NSO,06106.51024806,1 26566U 00063C   06106.51024806  .00000039  00000-0  10000-3 0  6514\,2 26566 064.5196 202.6373 0045866 218.2504 179.2386 02.13098327 42841,64.5196,0.0045866,2.13098327,202.6373,218.2504,179.2386
26566,COSMOS 2374 (GLONASS),NSO,06106.65242172,1 26566U 00063C   06106.65242172 +.00000038 +00000-0 +10000-3 0 06527\,2 26566 064.5197 202.6326 0045865 218.2151 288.3430 02.13098327042849,64.5197,0.0045865,2.13098327,202.6326,218.2151,288.343
26566,COSMOS 2374 (GLONASS),NSO,06107.93096095,1 26566U 00063C   06107.93096095 +.00000033 +00000-0 +10000-3 0 06558\,2 26566 064.5195 202.5898 0045921 218.2158 189.1788 02.13098354042877,64.5195,0.0045921,2.13098354,202.5898,218.2158,189.1788
26566,COSMOS 2374 (GLONASS),NSO,06108.86433770,1 26566U 00063C   06108.86433770 +.00000026 +00000-0 +10000-3 0 06558\,2 26566 064.5194 202.5586 0045915 218.1889 185.2498 02.13098373042891,64.5194,0.0045915,2.13098373,202.5586,218.1889,185.2498
26566,COSMOS 2374 (GLONASS),NSO,06109.28813559,1 26566U 00063C   06109.28813559  .00000022  00000-0  10000-3 0  6536\,2 26566 064.5195 202.5444 0045918 218.1856 150.3712 02.13098378 42901,64.5195,0.0045918,2.13098378,202.5444,218.1856,150.3712
26566,COSMOS 2374 (GLONASS),NSO,06109.34773071,1 26566U 00063C   06109.34773071 +.00000022 +00000-0 +10000-3 0 06548\,2 26566 064.5195 202.5424 0045931 218.1798 196.0960 02.13098388042902,64.5195,0.0045931,2.13098388,202.5424,218.1798,196.096
26566,COSMOS 2374 (GLONASS),NSO,06110.89033588,1 26566U 00063C   06110.89033588 +.00000008 +00000-0 +10000-3 0 06579\,2 26566 064.5194 202.4908 0045983 218.1921 299.4990 02.13098413042935,64.5194,0.0045983,2.13098413,202.4908,218.1921,299.499
26566,COSMOS 2374 (GLONASS),NSO,06111.58728125,1 26566U 00063C   06111.58728125 +.00000003 +00000-0 +10000-3 0 06568\,2 26566 064.5195 202.4674 0045984 218.2230 114.1319 02.13098413042940,64.5195,0.0045984,2.13098413,202.4674,218.223,114.1319
26566,COSMOS 2374 (GLONASS),NSO,06112.58023611,1 26566U 00063C   06112.58023611 -.00000000  00000-0  10000-3 0  6554\,2 26566 064.5194 202.4342 0045998 218.2323 155.8710 02.13098412 42978,64.5194,0.0045998,2.13098412,202.4342,218.2323,155.871
26566,COSMOS 2374 (GLONASS),NSO,06112.74923020,1 26566U 00063C   06112.74923020 -.00000001 +00000-0 +10000-3 0 06567\,2 26566 064.5195 202.4285 0046010 218.2470 285.5005 02.13098411042971,64.5195,0.004601,2.13098411,202.4285,218.247,285.5005
26566,COSMOS 2374 (GLONASS),NSO,06113.68676037,1 26566U 00063C   06113.68676037 +.00000001 +00000-0 +10000-3 0 06596\,2 26566 064.5194 202.3972 0046017 218.2821 284.6945 02.13098413042996,64.5194,0.0046017,2.13098413,202.3972,218.2821,284.6945
26566,COSMOS 2374 (GLONASS),NSO,06114.62999453,1 26566U 00063C   06114.62999453 +.00000007 +00000-0 +10000-3 0 06586\,2 26566 064.5207 202.3667 0046173 218.1656 288.4159 02.13098411043011,64.5207,0.0046173,2.13098411,202.3667,218.1656,288.4159
26566,COSMOS 2374 (GLONASS),NSO,06115.41347654,1 26566U 00063C   06115.41347654  .00000014  00000-0  10000-3 0  6571\,2 26566 064.5197 202.3396 0046074 218.3532 169.2785 02.13098416 43031,64.5197,0.0046074,2.13098416,202.3396,218.3532,169.2785
26566,COSMOS 2374 (GLONASS),NSO,06115.57918758,1 26566U 00063C   06115.57918758 +.00000016 +00000-0 +10000-3 0 06580\,2 26566 064.5197 202.3340 0046079 218.3477 296.4097 02.13098414043030,64.5197,0.0046079,2.13098414,202.334,218.3477,296.4097
26566,COSMOS 2374 (GLONASS),NSO,06116.84986500,1 26566U 00063C   06116.84986500  .00000027  00000-0  10000-3 0  6583\,2 26566 064.5196 202.2916 0046092 218.3467 191.2149 02.13098415 43065,64.5196,0.0046092,2.13098415,202.2916,218.3467,191.2149
26566,COSMOS 2374 (GLONASS),NSO,06117.32479244,1 26566U 00063C   06117.32479244 +.00000030 +00000-0 +10000-3 0 06606\,2 26566 064.5196 202.2757 0046097 218.3368 195.5666 02.13098409043078,64.5196,0.0046097,2.13098409,202.2757,218.3368,195.5666
26566,COSMOS 2374 (GLONASS),NSO,06118.27879991,1 26566U 00063C   06118.27879991  .00000033  00000-0  10000-3 0  6595\,2 26566 064.5196 202.2437 0046121 218.3350 207.4380 02.13098407 43098,64.5196,0.0046121,2.13098407,202.2437,218.335,207.438
26566,COSMOS 2374 (GLONASS),NSO,06118.70215102,1 26566U 00063C   06118.70215102 +.00000033 +00000-0 +10000-3 0 06603\,2 26566 064.5196 202.2295 0046116 218.3238 172.2243 02.13098402043103,64.5196,0.0046116,2.13098402,202.2295,218.3238,172.2243
26566,COSMOS 2374 (GLONASS),NSO,06119.79466338,1 26566U 00063C   06119.79466338  .00000028  00000-0  10000-3 0  6606\,2 26566 064.5201 202.1939 0046239 218.1667 290.5057 02.13098392 43121,64.5201,0.0046239,2.13098392,202.1939,218.1667,290.5057
26566,COSMOS 2374 (GLONASS),NSO,06120.72682616,1 26566U 00063C   06120.72682616 +.00000019 +00000-0 +10000-3 0 06633\,2 26566 064.5195 202.1617 0046175 218.3466 285.4363 02.13098388043144,64.5195,0.0046175,2.13098388,202.1617,218.3466,285.4363
26566,COSMOS 2374 (GLONASS),NSO,06120.97712022,1 26566U 00063C   06120.97712022  .00000016  00000-0  10000-3 0  6610\,2 26566 064.5195 202.1533 0046165 218.3531 117.4436 02.13098387 43147,64.5195,0.0046165,2.13098387,202.1533,218.3531,117.4436
26566,COSMOS 2374 (GLONASS),NSO,06121.91737610,1 26566U 00063C   06121.91737610 +.00000005 +00000-0 +10000-3 0 06635\,2 26566 064.5198 202.1220 0046246 218.5138 118.6005 02.13098367043163,64.5198,0.0046246,2.13098367,202.122,218.5138,118.6005
26566,COSMOS 2374 (GLONASS),NSO,06122.39188596,1 26566U 00063C   06122.39188596 -.00000000  00000-0  10000-3 0  6626\,2 26566 064.5198 202.1061 0046255 218.5021 122.6339 02.13098361 43177,64.5198,0.0046255,2.13098361,202.1061,218.5021,122.6339
26566,COSMOS 2374 (GLONASS),NSO,06122.60750962,1 26566U 00063C   06122.60750962 -.00000003 +00000-0 +10000-3 0 06636\,2 26566 064.5197 202.0989 0046259 218.5030 288.0491 02.13098357043180,64.5197,0.0046259,2.13098357,202.0989,218.503,288.0491
26566,COSMOS 2374 (GLONASS),NSO,06123.55672179,1 26566U 00063C   06123.55672179 -.00000011  00000-0  10000-3 0  6633\,2 26566 064.5194 202.0679 0046344 218.6132 296.1260 02.13098256 43207,64.5194,0.0046344,2.13098256,202.0679,218.6132,296.126
26566,COSMOS 2374 (GLONASS),NSO,06123.84281953,1 26566U 00063C   06123.84281953 -.00000013 +00000-0 +10000-3 0 06644\,2 26566 064.5198 202.0577 0046260 218.4798 155.7436 02.13098339043219,64.5198,0.004626,2.13098339,202.0577,218.4798,155.7436
26566,COSMOS 2374 (GLONASS),NSO,06124.36712777,1 26566U 00063C   06124.36712777 -.00000015 +00000-0 +10000-3 0 06669\,2 26566 064.5195 202.0401 0046276 218.5186 197.9291 02.13098336043226,64.5195,0.0046276,2.13098336,202.0401,218.5186,197.9291
26566,COSMOS 2374 (GLONASS),NSO,06124.75097416,1 26566U 00063C   06124.75097416 -.00000015  00000-0  10000-3 0  6646\,2 26566 064.5196 202.0273 0046291 218.5371 132.3793 02.13098336 43227,64.5196,0.0046291,2.13098336,202.0273,218.5371,132.3793
26566,COSMOS 2374 (GLONASS),NSO,06125.73464164,1 26566U 00063C   06125.73464164 -.00000013 +00000-0 +10000-3 0 06663\,2 26566 064.5196 201.9944 0046298 218.5508 166.9891 02.13098336043254,64.5196,0.0046298,2.13098336,201.9944,218.5508,166.9891
26566,COSMOS 2374 (GLONASS),NSO,06126.19388716,1 26566U 00063C   06126.19388716 -.00000010  00000-0  10000-3 0  6658\,2 26566 064.5196 201.9790 0046301 218.5484 159.3032 02.13098336 43265,64.5196,0.0046301,2.13098336,201.979,218.5484,159.3032
26566,COSMOS 2374 (GLONASS),NSO,06126.84554250,1 26566U 00063C   06126.84554250 -.00000004 +00000-0 +10000-3 0 06673\,2 26566 064.5196 201.9573 0046303 218.5588 299.2117 02.13098325043278,64.5196,0.0046303,2.13098325,201.9573,218.5588,299.2117
26566,COSMOS 2374 (GLONASS),NSO,06127.77220185,1 26566U 00063C   06127.77220185  .00000008  00000-0  10000-3 0  6665\,2 26566 064.5195 201.9262 0046316 218.5613 290.0986 02.13098322 43297,64.5195,0.0046316,2.13098322,201.9262,218.5613,290.0986
26566,COSMOS 2374 (GLONASS),NSO,06128.70438095,1 26566U 00063C   06128.70438095 +.00000021 +00000-0 +10000-3 0 06687\,2 26566 064.5195 201.8950 0046345 218.5487 285.2350 02.13098315043317,64.5195,0.0046345,2.13098315,201.895,218.5487,285.235
26566,COSMOS 2374 (GLONASS),NSO,06128.95519580,1 26566U 00063C   06128.95519580  .00000025  00000-0  10000-3 0  6676\,2 26566 064.5195 201.8866 0046347 218.5497 117.6473 02.13098316 43311,64.5195,0.0046347,2.13098316,201.8866,218.5497,117.6473
26566,COSMOS 2374 (GLONASS),NSO,06129.64191426,1 26566U 00063C   06129.64191426 +.00000035 +00000-0 +10000-3 0 06691\,2 26566 064.5195 201.8636 0046379 218.5729 284.4419 02.13098309043336,64.5195,0.0046379,2.13098309,201.8636,218.5729,284.4419
26566,COSMOS 2374 (GLONASS),NSO,06129.95712380,1 26566U 00063C   06129.95712380  .00000040  00000-0  10000-3 0  6688\,2 26566 064.5195 201.8531 0046383 218.5745 166.2542 02.13098309 43348,64.5195,0.0046383,2.13098309,201.8531,218.5745,166.2542
26566,COSMOS 2374 (GLONASS),NSO,06130.85607951,1 26566U 00063C   06130.85607951 +.00000051 +00000-0 +10000-3 0 06701\,2 26566 064.5195 201.8230 0046401 218.5740 135.8915 02.13098310043359,64.5195,0.0046401,2.1309831,201.823,218.574,135.8915
26566,COSMOS 2374 (GLONASS),NSO,06131.34264019,1 26566U 00063C   06131.34264019  .00000057  00000-0  10000-3 0  6694\,2 26566 064.5195 201.8068 0046407 218.5764 149.1556 02.13098309 43379,64.5195,0.0046407,2.13098309,201.8068,218.5764,149.1556
